C/2021 C6 (Lemmon),e,164.6045,332.3449,203.8210,3159,0.0000056,0.99896182,0.0000,11/12.3091/2021,2000,g 12.0,4.0
# From MPEC 2022-F14
C/2021 D1 (SWAN),e,31.3912,311.2241,72.3528,101.7483,0.0009603,0.99110470,0.0000,02/27.6870/2021,2000,g 13.0,4.0
# From MPEC 2023-J29
C/2021 D2 (ZTF),h,02/03.8840/2022,83.7880,305.6528,125.0376,1.001546,2.947083,2000,9.0,4.0
# From MPEC 2022-UY9
A/2021 E2,e,167.4901,190.7916,342.2867,209.5211,0.0003250,0.98910549,0.0000,12/09.7776/2020,2000,g 15.0,2.0
# From MPEC 2024-GJ3
C/2021 E3 (ZTF),h,06/11.6870/2022,112.5294,104.4835,228.8261,1.000392,1.777131,2000,8.5,4.0
# From MPEC 2024-N80
A/2021 E4,e,116.3655,171.1596,48.2676,520.0231,0.0000831,0.99100514,0.0000,04/24.9507/2022,2000,g 13.5,22.0
# From MPEC 2022-QD9
C/2021 F1 (Lemmon-PANSTARRS),e,107.3126,203.4891,146.8963,244.0959,0.0002584,0.99591177,0.0000,04/06.7611/2022,2000,g 13.5,4.0
# From MPEC 2021-J72
C/2021 G1 (Leonard),e,131.5492,270.7000,107.4356,72.03866,0.0016120,0.95245246,1.7762,07/27.0/2024,2000,g 14.0,4.0
# From MPEC 2024-O39
C/2021 G2 (ATLAS),h,09/09.2310/2024,48.4736,221.0948,343.2809,1.000178,4.982385,2000,5.5,4.0
# From MPEC 2022-X67
C/2021 G3 (PANSTARRS),e,102.8694,147.3752,10.5806,9896,0.0000010,0.99947654,0.0000,10/17.8694/2021,2000,g 10.5,4.0
# From MPEC 2021-Y10
P/2021 HS (PANSTARRS),e,12.1556,262.3624,46.1393,4.194197,0.1147442,0.80948126,124.6527,07/27.0/2024,2000,g 22.0,4.0
# From MPEC 2022-C56
C/2021 J1 (Maury-Attard),e,92.7117,88.4178,147.2633,26.28219,0.0073150,0.93388342,9.1702,07/27.0/2024,2000,g 15.5,4.0
# From MPEC 2023-XP6
C/2021 J2 (PANSTARRS),e,156.2122,23.3268,171.9369,114.4549,0.0008049,0.95891887,0.8367,07/27.0/2024,2000,g 12.0,4.0
# From MPEC 2024-F34
P/2021 J3 (ATLAS),e,14.5220,111.0836,125.7928,8.907667,0.0370730,0.44903467,68.6742,07/27.0/2024,2000,g  7.0,4.0
# From MPEC 2022-O08
C/2021 K1 (ATLAS),e,16.2730,140.9174,184.2592,12.63568,0.0219435,0.80207944,25.9056,07/27.0/2024,2000,g 11.0,4.0
# From MPEC 2022-O01
C/2021 K2 (MASTER),h,09/09.5946/2021,100.8655,282.3240,343.3312,1.000841,5.467750,2000,8.0,4.0
# From MPEC 2022-L66
C/2021 K3 (Catalina),h,02/03.9130/2022,134.7788,114.5882,182.0488,1.004477,5.231012,2000,10.0,4.0
# From MPEC 2021-W31
P/2021 L2 (Leonard),e,21.0648,266.6539,51.4850,4.048326,0.1210015,0.52075380,133.0302,07/27.0/2024,2000,g 17.0,4.0
# From MPEC 2024-H50
C/2021 L3 (Borisov),h,02/14.7624/2022,78.5594,345.0009,91.6358,1.004565,8.458914,2000,6.0,4.0
# From MPEC 2022-TA0
P/2021 N1 (ZTF),e,11.4881,301.1456,21.2384,2.978938,0.1916954,0.67589157,219.9006,07/27.0/2024,2000,g 19.0,4.0
# From MPEC 2024-GJ3
P/2021 N2 (Fuls),e,13.0611,221.7329,177.5701,6.944072,0.0538620,0.45250605,53.0907,07/27.0/2024,2000,g  9.5,4.0
# From MPEC 2022-YB4
C/2021 N3 (PANSTARRS),e,26.7519,337.5064,304.6928,144.4714,0.0005676,0.96043356,0.8167,07/27.0/2024,2000,g  8.5,4.0
# From MPEC 2022-A21
C/2021 O1 (Nishimura),e,27.5915,41.5872,74.3913,3079,0.0000058,0.99974558,0.0000,08/14.3789/2021,2000,g 10.5,4.0
# From MPEC 2022-L66
C/2021 O3 (PANSTARRS),h,04/21.1419/2022,56.8042,188.9302,299.9641,1.000043,0.285822,2000,10.5,4.0
# From MPEC 2024-F34
C/2021 P1 (PANSTARRS),e,51.6323,359.6923,40.5071,2910,0.0000063,0.99849579,0.0000,06/02.6279/2022,2000,g 11.0,4.0
# From MPEC 2024-NE4
C/2021 P2 (PANSTARRS),e,150.0619,32.0849,76.7219,6469,0.0000019,0.99921635,0.0000,01/23.0299/2023,2000,g  9.0,4.0
# From MPEC 2024-GJ3
P/2021 P3 (PANSTARRS),e,27.1609,358.2462,334.0702,4.412414,0.1063383,0.33859245,122.7804,07/27.0/2024,2000,g 14.0,4.0
# From MPEC 2023-A50
C/2021 P4 (ATLAS),e,56.3342,348.0547,175.7952,295.9545,0.0001936,0.99635313,0.0000,07/30.3457/2022,2000,g  9.5,4.0
# From MPEC 2023-E68
P/2021 PE20 (ATLAS),e,20.0005,99.6252,210.4638,3.745954,0.1359441,0.66992220,155.8891,07/27.0/2024,2000,g 17.0,4.0
# From MPEC 2023-FK0
C/2021 Q3 (ATLAS),e,77.7331,307.9141,114.1237,75.54611,0.0015010,0.93108513,1.3700,07/27.0/2024,2000,g  8.0,4.0
# From MPEC 2024-NE4
C/2021 Q4 (Fuls),h,06/11.5171/2023,71.4926,183.3269,147.0749,1.002760,7.565554,2000,6.0,4.0
# From MPEC 2022-C56
P/2021 Q5 (ATLAS),e,10.7398,239.7572,180.9391,3.286916,0.1653946,0.62466555,175.4828,07/27.0/2024,2000,g 15.0,4.0
# From MPEC 2024-NE4
C/2021 Q6 (PANSTARRS),h,03/25.1857/2024,161.8407,133.5498,141.0418,1.002064,8.707864,2000,6.0,4.0
# From MPEC 2023-FK0
C/2021 QM45 (PANSTARRS),e,22.8127,354.5974,72.8694,394.9452,0.0001256,0.99297285,0.0000,08/13.6679/2022,2000,g 11.0,4.0
# From MPEC 2022-X67
P/2021 R1 (PANSTARRS),e,5.5233,143.2143,220.2005,8.287642,0.0413102,0.41055486,39.5350,07/27.0/2024,2000,g 11.0,4.0
# From MPEC 2022-X67
C/2021 R2 (PANSTARRS),e,134.4838,16.3127,32.5171,4926,0.0000029,0.99851466,0.0000,12/27.9521/2021,2000,g  7.5,4.0
# From MPEC 2021-W31
P/2021 R3 (PANSTARRS),e,19.9342,304.1934,2.6709,3.770677,0.1346093,0.33106382,155.9894,07/27.0/2024,2000,g 16.0,4.0
# From MPEC 2021-W31
P/2021 R4 (Wierzchos),e,21.0222,321.2931,56.7321,5.625964,0.0738599,0.58571586,75.1203,07/27.0/2024,2000,g 16.0,4.0
# From MPEC 2024-JU4
P/2021 R5 (Rankin),e,7.8544,219.9549,167.5601,4.796333,0.0938296,0.30638340,86.9119,07/27.0/2024,2000,g 12.0,4.0
# From MPEC 2021-W31
P/2021 R6 (Groeller),e,34.9108,176.1608,220.8332,6.286232,0.0625343,0.59334259,62.4599,07/27.0/2024,2000,g 14.5,4.0
# From MPEC 2022-X67
C/2021 R7 (PANSTARRS),e,158.8662,170.1751,140.3318,891.6545,0.0000370,0.99366059,0.0000,04/16.7425/2021,2000,g 10.5,4.0
# From MPEC 2021-Y10
P/2021 R8 (Sheppard),e,2.2031,167.0737,190.8365,3.019335,0.1878612,0.29291556,192.3291,07/27.0/2024,2000,g 18.5,4.0
# From MPEC 2023-J29
C/2021 S1 (ATLAS),h,03/01.6417/2022,52.0492,299.8674,148.2508,1.002676,6.121531,2000,7.0,4.0
# From MPEC 2024-O39
C/2021 S3 (PANSTARRS),h,02/15.0012/2024,58.5776,215.7408,6.9745,1.009377,1.321285,2000,5.5,4.0
# From MPEC 2024-GJ3
C/2021 S4 (Tsuchinshan),e,17.4781,5.4762,72.9560,161.2757,0.0004812,0.95852016,0.0990,07/27.0/2024,2000,g  6.5,4.0
# From MPEC 2022-OB6
C/2021 T1 (Lemmon),e,140.3612,56.8445,51.5695,2079,0.0000104,0.99852770,0.0000,10/14.4749/2021,2000,g 12.5,4.0
# From MPEC 2023-A50
C/2021 T2 (Fuls),h,06/08.1090/2022,117.5358,223.2313,263.5758,1.000525,1.246249,2000,12.0,4.0
# From MPEC 2024-N80
C/2021 T4 (Lemmon),e,160.7782,257.8894,329.8109,17088,0.0000004,0.99991323,0.0000,07/31.5416/2023,2000,g  7.5,4.0
# From MPEC 2022-ED3
P/2021 U1 (Wierzchos),e,30.5519,246.7897,145.1847,8.535241,0.0395258,0.71295348,40.7074,07/27.0/2024,2000,g 14.5,4.0
# From MPEC 2022-L66
P/2021 U3 (Attard-Maury),e,69.9625,75.0939,335.2890,4.195516,0.1146901,0.54972649,115.3883,07/27.0/2024,2000,g 15.5,4.0
# From MPEC 2021-W31
C/2021 U4 (Leonard),e,152.8895,241.8085,237.3364,45.29564,0.0032331,0.96050716,3.0644,07/27.0/2024,2000,g 17.0,4.0
# From MPEC 2022-WQ9
C/2021 U5 (Catalina),e,39.0437,182.7239,321.4285,218.4614,0.0003052,0.98919676,0.0000,01/26.7297/2022,2000,g 13.0,4.0
# From MPEC 2022-CN4
C/2021 V1 (Rankin),e,71.4503,207.6754,195.1818,686.3919,0.0000548,0.99560496,0.0000,04/30.6019/2022,2000,g 13.0,4.0
# From MPEC 2024-JU4
P/2021 V2 (Fuls),e,12.6948,232.2757,259.8631,9.078829,0.0360296,0.61485671,19.9011,07/27.0/2024,2000,g 10.0,4.0
# From MPEC 2024-O39
C/2021 X1 (Maury-Attard),h,05/27.1588/2023,140.1001,10.5950,334.5743,1.000287,3.233706,2000,7.0,4.0
# From MPEC 2024-E08
C/2021 X2 (Bok),h,07/08.1597/2022,137.1604,228.8257,193.3342,1.001079,2.996448,2000,13.0,4.0
# From MPEC 2024-GJ3
C/2021 Y1 (ATLAS),h,04/30.7849/2023,77.1946,244.7669,245.8377,1.001274,2.032569,2000,7.0,4.0
# From MPEC 2022-YN2
C/2022 A1 (Sarneczky),e,116.5464,285.5035,201.2508,355.5119,0.0001470,0.99647083,0.0000,01/31.0489/2022,2000,g 18.0,4.0
# From MPEC 2024-NE4
C/2022 A2 (PANSTARRS),h,02/18.2119/2023,108.1386,171.5857,88.3681,1.000205,1.735512,2000,9.5,4.0
# From MPEC 2024-O39
C/2022 A3 (Lemmon-ATLAS),e,88.3415,325.4704,234.8550,858.9560,0.0000392,0.99568808,0.0000,09/28.8834/2023,2000,g  8.0,4.0
# From MPEC 2022-K19
P/2022 B1 (Wierzchos),e,10.9911,325.4194,148.8842,5.467609,0.0770917,0.65345472,68.0224,07/27.0/2024,2000,g 16.5,4.0
# From MPEC 2022-YB4
A/2022 B3,e,132.0533,286.1865,150.6955,674.0042,0.0000563,0.99450907,0.0000,01/17.0642/2022,2000,g 16.5,2.0
# From MPEC 2022-GA9
C/2022 B4 (Bok),e,20.0488,340.5830,152.9629,388.7558,0.0001286,0.99645851,0.0000,01/30.1331/2022,2000,g 21.0,4.0
# From MPEC 2023-J29
P/2022 BV9 (Lemmon),e,11.9280,337.3108,16.3247,4.363914,0.1081159,0.23407695,148.3837,07/27.0/2024,2000,g  9.5,4.0
# From MPEC 2023-J29
P/2022 C1 (PANSTARRS),e,4.7625,113.1123,9.3866,7.229036,0.0507088,0.44885216,50.4632,07/27.0/2024,2000,g 12.0,4.0
# From MPEC 2023-VM5
P/2022 C2 (PANSTARRS),e,9.9834,135.2608,89.1983,6.035644,0.0664689,0.44184231,47.9259,07/27.0/2024,2000,g 12.5,4.0
# From MPEC 2023-UR6
P/2022 C3 (PANSTARRS),e,12.8216,139.0404,93.8582,9.620865,0.0330280,0.54550249,25.0208,07/27.0/2024,2000,g 11.5,4.0
# From MPEC 2022-K19
P/2022 D1 (PANSTARRS),e,44.0766,47.9577,88.6548,7.403843,0.0489236,0.54766815,52.0398,07/27.0/2024,2000,g 12.5,4.0
# From MPEC 2022-K19
C/2022 D2 (Kowalski),e,22.6673,312.4004,177.8111,379.2420,0.0001335,0.99590483,0.0000,03/27.7738/2022,2000,g 17.0,4.0
# From MPEC 2022-L66
P/2022 E1 (Christensen),e,19.0071,113.3447,114.9818,3.778749,0.1341782,0.22061584,104.4017,07/27.0/2024,2000,g 13.5,4.0
# From MPEC 2024-JU4
C/2022 E2 (ATLAS),h,09/14.1256/2024,137.1285,125.3725,41.7214,1.000970,3.666278,2000,5.0,4.0
# From MPEC 2024-GJ3
C/2022 E3 (ZTF),h,01/12.6859/2023,109.1691,302.5411,145.8095,1.000034,1.112650,2000,7.5,4.0
# From MPEC 2024-NE4
C/2022 F1 (ATLAS),e,57.9889,350.6404,278.2934,3979,0.0000039,0.99849824,0.0000,08/05.1831/2022,2000,g  7.0,4.0
# From MPEC 2022-QD9
C/2022 F2 (NEOWISE),e,97.3138,58.7832,200.6199,23.92363,0.0084229,0.93357700,7.2187,07/27.0/2024,2000,g 14.5,4.0
# From MPEC 2024-JU4
C/2022 H1 (PANSTARRS),e,49.8604,6.3475,246.3019,885.1642,0.0000374,0.99131259,0.0000,01/19.0181/2024,2000,g  6.0,4.0
# From MPEC 2022-VC5
C/2022 J1 (Maury-Attard),e,105.9551,280.7785,305.6528,47.59680,0.0030015,0.96632211,2.6679,07/27.0/2024,2000,g 14.9,4.0
# From MPEC 2023-M14
